[{"OBJECT_NAME":"STARLINK-33754","OBJECT_ID":"2025-070AD","EPOCH":"2026-03-09T22:33:42.434208","MEAN_MOTION":15.27582531,"ECCENTRICITY":0.00019883,"INCLINATION":42.9997,"RA_OF_ASC_NODE":258.4595,"ARG_OF_PERICENTER":262.681,"MEAN_ANOMALY":97.3816,"EPHEMERIS_TYPE":0,"CLASSIFICATION_TYPE":"U","NORAD_CAT_ID":63487,"ELEMENT_SET_NO":999,"REV_AT_EPOCH":5301,"BSTAR":0.00097229539,"MEAN_MOTION_DOT":0.00026592,"MEAN_MOTION_DDOT":0},{"OBJECT_NAME":"GEOSCAN 2 (RS92S2)","OBJECT_ID":"2025-155Q","EPOCH":"2026-03-09T23:01:48.939744","MEAN_MOTION":15.28709337,"ECCENTRICITY":0.00085277,"INCLINATION":97.4463,"RA_OF_ASC_NODE":37.5259,"ARG_OF_PERICENTER":140.9505,"MEAN_ANOMALY":219.2352,"EPHEMERIS_TYPE":0,"CLASSIFICATION_TYPE":"U","NORAD_CAT_ID":64890,"ELEMENT_SET_NO":999,"REV_AT_EPOCH":6561,"BSTAR":0.00051551761,"MEAN_MOTION_DOT":0.00014341,"MEAN_MOTION_DDOT":0}]
